GPS BIIR-2  (PRN 13)    
1 24876U 97035A   16076.86731611  .00000026  00000-0  00000+0 0  9991
2 24876  55.6903 245.1313 0044035 115.0085 245.4279  2.00562593136658
GPS BIIR-3  (PRN 11)    
1 25933U 99055A   16077.57188866 -.00000004  00000-0  00000+0 0  9994
2 25933  51.3356  97.6860 0159918  86.3378 347.9575  2.00564820120483
GPS BIIR-4  (PRN 20)    
1 26360U 00025A   16077.28510193 -.00000055  00000-0  00000+0 0  9994
2 26360  53.0704 173.9455 0045523  76.5095 253.3613  2.00559042116179
GPS BIIR-5  (PRN 28)    
1 26407U 00040A   16077.10008696 -.00000100  00000-0  00000+0 0  9995
2 26407  56.6985   2.9589 0201041 267.2505 206.5231  2.00569685114846
GPS BIIR-6  (PRN 14)    
1 26605U 00071A   16077.51076784  .00000016  00000-0  00000+0 0  9992
2 26605  55.2598 243.0096 0086033 248.6086  95.0398  2.00555968112450
GPS BIIR-7  (PRN 18)    
1 26690U 01004A   16077.50010185 -.00000056  00000-0  00000+0 0  9990
2 26690  52.9988 176.9114 0170552 251.1347 180.8650  2.00563481110850
GPS BIIR-8  (PRN 16)    
1 27663U 03005A   16077.45171122 -.00000102  00000-0  00000+0 0  9999
2 27663  56.7737   2.6571 0085930  18.2154 112.2305  2.00558171 96220
GPS BIIR-9  (PRN 21)    
1 27704U 03010A   16077.43160453 -.00000008  00000-0  00000+0 0  9999
2 27704  53.6216 117.1992 0234762 256.1221 181.3158  2.00565818 95015
GPS BIIR-10 (PRN 22)    
1 28129U 03058A   16074.03632236 -.00000013  00000-0  00000+0 0  9995
2 28129  52.8765 177.0992 0079683 245.4809 113.6988  2.00399826 89650
GPS BIIR-11 (PRN 19)    
1 28190U 04009A   16077.18593109 -.00000013  00000-0  00000+0 0  9994
2 28190  55.7365  64.0522 0106047  40.5804  45.3625  2.00571507 87884
GPS BIIR-12 (PRN 23)    
1 28361U 04023A   16077.56502311  .00000008  00000-0  00000+0 0  9990
2 28361  54.2287 238.5874 0107289 211.8205  63.9560  2.00558889 85976
GPS BIIR-13 (PRN 02)    
1 28474U 04045A   16077.16077381 -.00000008  00000-0  00000+0 0  9990
2 28474  54.0124 116.4950 0157347 237.3883 109.7652  2.00555395 83331
GPS BIIRM-1 (PRN 17)    
1 28874U 05038A   16077.20007475 -.00000017  00000-0  00000+0 0  9999
2 28874  55.9035  61.2462 0112154 249.3521 234.7241  2.00565823 76736
GPS BIIRM-2 (PRN 31)    
1 29486U 06042A   16077.37473341 -.00000022  00000-0  00000+0 0  9998
2 29486  55.6931 300.5337 0083785 334.8332 195.9284  2.00559296 69458
GPS BIIRM-3 (PRN 12)    
1 29601U 06052A   16077.08107967 -.00000101  00000-0  00000+0 0  9992
2 29601  56.7441   1.5965 0058372  37.8294 322.5847  2.00553141 68366
GPS BIIRM-4 (PRN 15)    
1 32260U 07047A   16075.90932155  .00000021  00000-0  00000+0 0  9996
2 32260  53.3584 235.4071 0079967  25.9571 334.4095  2.00576622 61726
GPS BIIRM-5 (PRN 29)    
1 32384U 07062A   16077.28526248 -.00000016  00000-0  00000+0 0  9990
2 32384  55.9577  61.7958 0011949 322.5473  90.1945  2.00572423 60487
GPS BIIRM-6 (PRN 07)    
1 32711U 08012A   16077.31185237 -.00000022  00000-0  00000+0 0  9990
2 32711  55.4161 300.0186 0092413 207.5376 152.0109  2.00564609 58671
GPS BIIRM-7 (PRN 04)    
1 34661U 09014A   16077.37460296 -.00000103  00000-0  00000+0 0  9996
2 34661  56.3459 359.9377 0081022  48.3073  63.8299  2.00571612 51204
GPS BIIRM-8 (PRN 05)    
1 35752U 09043A   16077.32430556 -.00000053  00000-0  00000+0 0  9995
2 35752  54.2230 178.0384 0044704  24.4432  12.9357  2.00554175 48254
GPS BIIF-1  (PRN 25)    
1 36585U 10022A   16077.23570409 -.00000103  00000-0  00000+0 0  9997
2 36585  56.0725 358.7218 0052373  39.6251  43.4407  2.00551172 42498
GPS BIIF-2  (PRN 01)    
1 37753U 11036A   16077.59574089 -.00000003  00000-0  00000+0 0  9997
2 37753  55.2303 118.9974 0050697  23.5980  42.0726  2.00566202 34188
GPS BIIF-3  (PRN 24)    
1 38833U 12053A   16076.99457108 -.00000020  00000-0  00000+0 0  9991
2 38833  54.4482 297.3993 0042708  19.5823 340.6206  2.00568606 25253
GPS BIIF-4  (PRN 27)    
1 39166U 13023A   16077.35248640 -.00000022  00000-0  00000+0 0  9991
2 39166  55.6139  58.4048 0033431   8.3970 351.6609  2.00568169 20779
GPS BIIF-5  (PRN 30)    
1 39533U 14008A   16077.84962975 -.00000028  00000-0  00000+0 0  9997
2 39533  54.6015 302.5840 0017759 178.0962 181.9539  2.00569062 15169
GPS BIIF-6  (PRN 06)    
1 39741U 14026A   16076.63046284 -.00000011  00000-0  00000+0 0  9992
2 39741  55.2209 118.5520 0006140 264.2685  95.7261  2.00565669 13413
GPS BIIF-7  (PRN 09)    
1 40105U 14045A   16076.72424542  .00000019  00000-0  00000+0 0  9993
2 40105  54.7474 238.2832 0004585 125.9164 234.0972  2.00569716 11860
GPS BIIF-8  (PRN 03)    
1 40294U 14068A   16077.09289650 -.00000050  00000-0  00000+0 0  9993
2 40294  54.9623 178.6751 0003846 231.9371 128.0303  2.00555034 10093
GPS BIIF-9  (PRN 26)    
1 40534U 15013A   16077.23238857 -.00000104  00000-0  00000+0 0  9990
2 40534  55.0413 358.2796 0009741 346.6848  13.2991  2.00557679  7166
GPS BIIF-10  (PRN 08)   
1 40730U 15033A   16077.38976089 -.00000024  00000-0  00000+0 0  9993
2 40730  55.1506  58.2811 0020522 285.0870  74.6885  2.00564950  4928
GPS BIIF-11  (PRN 10)   
1 41019U 15062A   16076.94472524 -.00000049  00000-0  00000+0 0  9999
2 41019  54.9778 178.4467 0012964 206.0675 153.8692  2.00562050  2738
GPS BIIF-12  (PRN 32)   
1 41328U 16007A   16076.53899145  .00000022  00000-0  00000+0 0  9999
2 41328  55.0087 238.3478 0002684 275.0347  84.9039  2.00574463   798
